<?xml version="1.0" encoding="UTF-8" standalone="no"?>
<gpx version="1.1" creator="Trailforks.com" xmlns="http://www.topografix.com/GPX/1/1" xmlns:xsi="http://www.w3.org/2001/XMLSchema-instance" xmlns:gpxtpx="http://www.garmin.com/xmlschemas/TrackPointExtension/v1" xsi:schemaLocation="http://www.topografix.com/GPX/1/1 http://www.topografix.com/GPX/1/1/gpx.xsd http://www.garmin.com/xmlschemas/TrackPointExtension/v1 http://www.garmin.com/xmlschemas/TrackPointExtensionv1.xsd">
<metadata>
<name>Battlestag Trailforks Trail</name>
<link href="https://www.trailforks.com/">
<text>Trailforks</text>
</link>
</metadata>
<trk>
<name>
Battlestag
</name>
<link href="https://www.trailforks.com/trails/battlestag/">
</link>
<trkseg>
<trkpt lat="-45.03284" lon="168.64827">
<ele>457</ele>
</trkpt>
<trkpt lat="-45.03299" lon="168.64833">
<ele>450</ele>
</trkpt>
<trkpt lat="-45.03311" lon="168.64849">
<ele>449</ele>
</trkpt>
<trkpt lat="-45.03311" lon="168.64867">
<ele>449</ele>
</trkpt>
<trkpt lat="-45.03292" lon="168.64889">
<ele>446</ele>
</trkpt>
<trkpt lat="-45.03284" lon="168.64899">
<ele>458</ele>
</trkpt>
<trkpt lat="-45.03284" lon="168.64904">
<ele>456</ele>
</trkpt>
<trkpt lat="-45.03285" lon="168.64909">
<ele>456</ele>
</trkpt>
<trkpt lat="-45.03292" lon="168.64916">
<ele>442</ele>
</trkpt>
<trkpt lat="-45.03291" lon="168.64943">
<ele>449</ele>
</trkpt>
<trkpt lat="-45.03297" lon="168.64957">
<ele>436</ele>
</trkpt>
<trkpt lat="-45.0329" lon="168.64979">
<ele>442</ele>
</trkpt>
<trkpt lat="-45.03307" lon="168.64979">
<ele>428</ele>
</trkpt>
<trkpt lat="-45.03321" lon="168.64998">
<ele>401</ele>
</trkpt>
<trkpt lat="-45.03325" lon="168.65006">
<ele>401</ele>
</trkpt>
<trkpt lat="-45.03323" lon="168.65034">
<ele>395</ele>
</trkpt>
</trkseg>
</trk>
</gpx>
