<?xml version="1.0" encoding="UTF-8" standalone="no"?>
<gpx version="1.1" creator="Trailforks.com" xmlns="http://www.topografix.com/GPX/1/1" xmlns:xsi="http://www.w3.org/2001/XMLSchema-instance" xmlns:gpxtpx="http://www.garmin.com/xmlschemas/TrackPointExtension/v1" xsi:schemaLocation="http://www.topografix.com/GPX/1/1 http://www.topografix.com/GPX/1/1/gpx.xsd http://www.garmin.com/xmlschemas/TrackPointExtension/v1 http://www.garmin.com/xmlschemas/TrackPointExtensionv1.xsd">
<metadata>
<name>Col Pith Trailforks Trail</name>
<link href="https://www.trailforks.com/">
<text>Trailforks</text>
</link>
</metadata>
<trk>
<name>
Col Pith
</name>
<link href="https://www.trailforks.com/trails/col-pith/">
</link>
<trkseg>
<trkpt lat="-45.03118" lon="168.64697"><ele>546</ele></trkpt>
<trkpt lat="-45.03124" lon="168.64699"><ele>546</ele></trkpt>
<trkpt lat="-45.03126" lon="168.6471"><ele>523</ele></trkpt>
<trkpt lat="-45.03124" lon="168.64719"><ele>535</ele></trkpt>
<trkpt lat="-45.03112" lon="168.64729"><ele>535</ele></trkpt>
<trkpt lat="-45.03113" lon="168.64736"><ele>535</ele></trkpt>
<trkpt lat="-45.03118" lon="168.64738"><ele>532</ele></trkpt>
<trkpt lat="-45.03117" lon="168.64746"><ele>532</ele></trkpt>
<trkpt lat="-45.03115" lon="168.64762"><ele>532</ele></trkpt>
<trkpt lat="-45.03117" lon="168.64766"><ele>530</ele></trkpt>
<trkpt lat="-45.03124" lon="168.64769"><ele>530</ele></trkpt>
<trkpt lat="-45.03127" lon="168.64768"><ele>517</ele></trkpt>
<trkpt lat="-45.03138" lon="168.64749"><ele>517</ele></trkpt>
<trkpt lat="-45.03145" lon="168.64742"><ele>517</ele></trkpt>
<trkpt lat="-45.03157" lon="168.64737"><ele>511</ele></trkpt>
<trkpt lat="-45.03162" lon="168.64737"><ele>511</ele></trkpt>
<trkpt lat="-45.03165" lon="168.6474"><ele>511</ele></trkpt>
<trkpt lat="-45.0317" lon="168.64754"><ele>511</ele></trkpt>
</trkseg>
</trk>
</gpx>
