<?xml version="1.0" encoding="UTF-8" standalone="no"?>
<gpx version="1.1" creator="Trailforks.com" xmlns="http://www.topografix.com/GPX/1/1" xmlns:xsi="http://www.w3.org/2001/XMLSchema-instance" xmlns:gpxtpx="http://www.garmin.com/xmlschemas/TrackPointExtension/v1" xsi:schemaLocation="http://www.topografix.com/GPX/1/1 http://www.topografix.com/GPX/1/1/gpx.xsd http://www.garmin.com/xmlschemas/TrackPointExtension/v1 http://www.garmin.com/xmlschemas/TrackPointExtensionv1.xsd">
<metadata>
<name>Diesel Trailforks Trail</name>
<link href="https://www.trailforks.com/">
<text>Trailforks</text>
</link>
</metadata>
<trk>
<name>
Diesel
</name>
<link href="https://www.trailforks.com/trails/diesel/">
</link>
<trkseg>
<trkpt lat="-45.0326" lon="168.64436"><ele>507</ele></trkpt>
<trkpt lat="-45.03263" lon="168.64446"><ele>507</ele></trkpt>
<trkpt lat="-45.0326" lon="168.64455"><ele>507</ele></trkpt>
<trkpt lat="-45.03258" lon="168.64466"><ele>501</ele></trkpt>
<trkpt lat="-45.03262" lon="168.64479"><ele>501</ele></trkpt>
<trkpt lat="-45.03274" lon="168.64483"><ele>489</ele></trkpt>
<trkpt lat="-45.03279" lon="168.64488"><ele>486</ele></trkpt>
<trkpt lat="-45.03277" lon="168.64499"><ele>486</ele></trkpt>
</trkseg>
</trk>
</gpx>
