<?xml version="1.0" encoding="UTF-8" standalone="no"?>
<gpx version="1.1" creator="Trailforks.com" xmlns="http://www.topografix.com/GPX/1/1" xmlns:xsi="http://www.w3.org/2001/XMLSchema-instance" xmlns:gpxtpx="http://www.garmin.com/xmlschemas/TrackPointExtension/v1" xsi:schemaLocation="http://www.topografix.com/GPX/1/1 http://www.topografix.com/GPX/1/1/gpx.xsd http://www.garmin.com/xmlschemas/TrackPointExtension/v1 http://www.garmin.com/xmlschemas/TrackPointExtensionv1.xsd">
<metadata>
<name>Fundy Trailforks Trail</name>
<link href="https://www.trailforks.com/">
<text>Trailforks</text>
</link>
</metadata>
<trk>
<name>
Fundy
</name>
<link href="https://www.trailforks.com/trails/fundy/">
</link>
<trkseg>
<trkpt lat="-45.03014" lon="168.64465">
<ele>620</ele>
<time>2026-08-15T23:11:26-07:00</time>
</trkpt>
<trkpt lat="-45.03022" lon="168.64475">
<ele>620</ele>
<time>2026-08-15T23:11:27-07:00</time>
</trkpt>
<trkpt lat="-45.03032" lon="168.64477">
<ele>620</ele>
<time>2026-08-15T23:11:28-07:00</time>
</trkpt>
<trkpt lat="-45.03038" lon="168.64467">
<ele>620</ele>
<time>2026-08-15T23:11:29-07:00</time>
</trkpt>
<trkpt lat="-45.03044" lon="168.64464">
<ele>596</ele>
<time>2026-08-15T23:11:30-07:00</time>
</trkpt>
<trkpt lat="-45.0305" lon="168.64464">
<ele>596</ele>
<time>2026-08-15T23:11:31-07:00</time>
</trkpt>
<trkpt lat="-45.03054" lon="168.64467">
<ele>596</ele>
<time>2026-08-15T23:11:32-07:00</time>
</trkpt>
<trkpt lat="-45.03061" lon="168.64465">
<ele>596</ele>
<time>2026-08-15T23:11:33-07:00</time>
</trkpt>
<trkpt lat="-45.03067" lon="168.64466">
<ele>596</ele>
<time>2026-08-15T23:11:34-07:00</time>
</trkpt>
<trkpt lat="-45.03074" lon="168.64459">
<ele>577</ele>
<time>2026-08-15T23:11:35-07:00</time>
</trkpt>
<trkpt lat="-45.03087" lon="168.6447">
<ele>577</ele>
<time>2026-08-15T23:11:36-07:00</time>
</trkpt>
<trkpt lat="-45.03094" lon="168.64472">
<ele>577</ele>
<time>2026-08-15T23:11:37-07:00</time>
</trkpt>
<trkpt lat="-45.03097" lon="168.6448">
<ele>577</ele>
<time>2026-08-15T23:11:38-07:00</time>
</trkpt>
<trkpt lat="-45.031" lon="168.64496">
<ele>569</ele>
<time>2026-08-15T23:11:39-07:00</time>
</trkpt>
<trkpt lat="-45.031" lon="168.64513">
<ele>569</ele>
<time>2026-08-15T23:11:40-07:00</time>
</trkpt>
<trkpt lat="-45.03101" lon="168.64536">
<ele>567</ele>
<time>2026-08-15T23:11:41-07:00</time>
</trkpt>
<trkpt lat="-45.03107" lon="168.64548">
<ele>564</ele>
<time>2026-08-15T23:11:42-07:00</time>
</trkpt>
<trkpt lat="-45.03111" lon="168.64544">
<ele>564</ele>
<time>2026-08-15T23:11:43-07:00</time>
</trkpt>
<trkpt lat="-45.03115" lon="168.64546">
<ele>564</ele>
<time>2026-08-15T23:11:44-07:00</time>
</trkpt>
<trkpt lat="-45.03117" lon="168.64553">
<ele>564</ele>
<time>2026-08-15T23:11:45-07:00</time>
</trkpt>
</trkseg>
</trk>
</gpx>
