<?xml version="1.0" encoding="UTF-8" standalone="no"?>
<gpx version="1.1" creator="Trailforks.com" xmlns="http://www.topografix.com/GPX/1/1" xmlns:xsi="http://www.w3.org/2001/XMLSchema-instance" xmlns:gpxtpx="http://www.garmin.com/xmlschemas/TrackPointExtension/v1" xsi:schemaLocation="http://www.topografix.com/GPX/1/1 http://www.topografix.com/GPX/1/1/gpx.xsd http://www.garmin.com/xmlschemas/TrackPointExtension/v1 http://www.garmin.com/xmlschemas/TrackPointExtensionv1.xsd">
<metadata>
<name>KY Trailforks Trail</name>
<link href="https://www.trailforks.com/">
<text>Trailforks</text>
</link>
</metadata>
<trk>
<name>
KY
</name>
<link href="https://www.trailforks.com/trails/ky/">
</link>
<trkseg>
<trkpt lat="-45.03128" lon="168.64377"><ele>566</ele></trkpt>
<trkpt lat="-45.03145" lon="168.64378"><ele>566</ele></trkpt>
<trkpt lat="-45.03154" lon="168.64383"><ele>552</ele></trkpt>
<trkpt lat="-45.03162" lon="168.64376"><ele>552</ele></trkpt>
<trkpt lat="-45.03168" lon="168.64382"><ele>552</ele></trkpt>
<trkpt lat="-45.03173" lon="168.64374"><ele>554</ele></trkpt>
<trkpt lat="-45.03178" lon="168.64381"><ele>552</ele></trkpt>
<trkpt lat="-45.03183" lon="168.64372"><ele>539</ele></trkpt>
<trkpt lat="-45.03188" lon="168.64379"><ele>537</ele></trkpt>
<trkpt lat="-45.03192" lon="168.64372"><ele>539</ele></trkpt>
<trkpt lat="-45.03198" lon="168.64379"><ele>537</ele></trkpt>
<trkpt lat="-45.03201" lon="168.64368"><ele>539</ele></trkpt>
<trkpt lat="-45.03206" lon="168.64376"><ele>537</ele></trkpt>
<trkpt lat="-45.03211" lon="168.64364"><ele>526</ele></trkpt>
<trkpt lat="-45.03226" lon="168.64382"><ele>526</ele></trkpt>
<trkpt lat="-45.03234" lon="168.64409"><ele>526</ele></trkpt>
<trkpt lat="-45.03246" lon="168.64422"><ele>514</ele></trkpt>
</trkseg>
</trk>
</gpx>
