<?xml version="1.0" encoding="UTF-8" standalone="no"?>
<gpx version="1.1" creator="Trailforks.com" xmlns="http://www.topografix.com/GPX/1/1" xmlns:xsi="http://www.w3.org/2001/XMLSchema-instance" xmlns:gpxtpx="http://www.garmin.com/xmlschemas/TrackPointExtension/v1" xsi:schemaLocation="http://www.topografix.com/GPX/1/1 http://www.topografix.com/GPX/1/1/gpx.xsd http://www.garmin.com/xmlschemas/TrackPointExtension/v1 http://www.garmin.com/xmlschemas/TrackPointExtensionv1.xsd">
<metadata>
<name>One82 Trailforks Trail</name>
<link href="https://www.trailforks.com/">
<text>Trailforks</text>
</link>
</metadata>
<trk>
<name>
One82
</name>
<link href="https://www.trailforks.com/trails/one82/">
</link>
<trkseg>
<trkpt lat="-45.03097" lon="168.64208"><ele>597</ele></trkpt>
<trkpt lat="-45.03097" lon="168.64219"><ele>595</ele></trkpt>
<trkpt lat="-45.031" lon="168.64233"><ele>579</ele></trkpt>
<trkpt lat="-45.031" lon="168.64252"><ele>578</ele></trkpt>
<trkpt lat="-45.03104" lon="168.64272"><ele>577</ele></trkpt>
<trkpt lat="-45.03106" lon="168.64293"><ele>578</ele></trkpt>
<trkpt lat="-45.03112" lon="168.64309"><ele>578</ele></trkpt>
<trkpt lat="-45.03117" lon="168.64327"><ele>580</ele></trkpt>
<trkpt lat="-45.03123" lon="168.64345"><ele>580</ele></trkpt>
<trkpt lat="-45.03127" lon="168.6436"><ele>568</ele></trkpt>
<trkpt lat="-45.03127" lon="168.64377"><ele>566</ele></trkpt>
</trkseg>
</trk>
</gpx>
